[{"OBJECT_NAME":"NOAA 2 (ITOS-D)","OBJECT_ID":"1972-082A","EPOCH":"2026-03-28T14:05:44.509344","MEAN_MOTION":12.53212418,"ECCENTRICITY":0.00037809,"INCLINATION":102.0148,"RA_OF_ASC_NODE":105.2586,"ARG_OF_PERICENTER":327.9426,"MEAN_ANOMALY":144.9494,"EPHEMERIS_TYPE":0,"CLASSIFICATION_TYPE":"U","NORAD_CAT_ID":6235,"ELEMENT_SET_NO":999,"REV_AT_EPOCH":44485,"BSTAR":0.00014699634,"MEAN_MOTION_DOT":-2.3e-7,"MEAN_MOTION_DDOT":0},{"OBJECT_NAME":"NOAA 3","OBJECT_ID":"1973-086A","EPOCH":"2026-03-28T13:21:03.805920","MEAN_MOTION":12.40392272,"ECCENTRICITY":0.00061727,"INCLINATION":102.2896,"RA_OF_ASC_NODE":100.7187,"ARG_OF_PERICENTER":272.9249,"MEAN_ANOMALY":201.9908,"EPHEMERIS_TYPE":0,"CLASSIFICATION_TYPE":"U","NORAD_CAT_ID":6920,"ELEMENT_SET_NO":999,"REV_AT_EPOCH":37190,"BSTAR":0.000215031,"MEAN_MOTION_DOT":-1.8e-7,"MEAN_MOTION_DDOT":0},{"OBJECT_NAME":"NOAA 4","OBJECT_ID":"1974-089A","EPOCH":"2026-03-28T13:36:47.079648","MEAN_MOTION":12.53202056,"ECCENTRICITY":0.00089118,"INCLINATION":102.0064,"RA_OF_ASC_NODE":99.5011,"ARG_OF_PERICENTER":353.0282,"MEAN_ANOMALY":120.2736,"EPHEMERIS_TYPE":0,"CLASSIFICATION_TYPE":"U","NORAD_CAT_ID":7529,"ELEMENT_SET_NO":999,"REV_AT_EPOCH":34942,"BSTAR":0.00014831232,"MEAN_MOTION_DOT":-2.3e-7,"MEAN_MOTION_DDOT":0},{"OBJECT_NAME":"NOAA 5","OBJECT_ID":"1976-077A","EPOCH":"2026-03-28T14:25:59.645856","MEAN_MOTION":12.37829043,"ECCENTRICITY":0.00100256,"INCLINATION":102.2984,"RA_OF_ASC_NODE":73.2098,"ARG_OF_PERICENTER":126.0013,"MEAN_ANOMALY":343.8179,"EPHEMERIS_TYPE":0,"CLASSIFICATION_TYPE":"U","NORAD_CAT_ID":9057,"ELEMENT_SET_NO":999,"REV_AT_EPOCH":24450,"BSTAR":0.00020436028,"MEAN_MOTION_DOT":-1.9e-7,"MEAN_MOTION_DDOT":0},{"OBJECT_NAME":"TIROS N","OBJECT_ID":"1978-096A","EPOCH":"2026-03-28T13:31:10.819488","MEAN_MOTION":14.19346621,"ECCENTRICITY":0.00115472,"INCLINATION":98.461,"RA_OF_ASC_NODE":112.2443,"ARG_OF_PERICENTER":114.2396,"MEAN_ANOMALY":245.9989,"EPHEMERIS_TYPE":0,"CLASSIFICATION_TYPE":"U","NORAD_CAT_ID":11060,"ELEMENT_SET_NO":999,"REV_AT_EPOCH":66731,"BSTAR":0.00010247359,"MEAN_MOTION_DOT":1.74e-6,"MEAN_MOTION_DDOT":0},{"OBJECT_NAME":"NOAA 7","OBJECT_ID":"1981-059A","EPOCH":"2026-03-28T03:37:45.099552","MEAN_MOTION":14.1777712,"ECCENTRICITY":0.00122285,"INCLINATION":98.8024,"RA_OF_ASC_NODE":155.0426,"ARG_OF_PERICENTER":136.6481,"MEAN_ANOMALY":223.5658,"EPHEMERIS_TYPE":0,"CLASSIFICATION_TYPE":"U","NORAD_CAT_ID":12553,"ELEMENT_SET_NO":999,"REV_AT_EPOCH":31326,"BSTAR":4.9785902e-5,"MEAN_MOTION_DOT":5.8e-7,"MEAN_MOTION_DDOT":0},{"OBJECT_NAME":"NOAA 8","OBJECT_ID":"1983-022A","EPOCH":"2026-03-28T14:08:29.402880","MEAN_MOTION":14.29774045,"ECCENTRICITY":0.00156298,"INCLINATION":98.7364,"RA_OF_ASC_NODE":100.4492,"ARG_OF_PERICENTER":131.6812,"MEAN_ANOMALY":228.571,"EPHEMERIS_TYPE":0,"CLASSIFICATION_TYPE":"U","NORAD_CAT_ID":13923,"ELEMENT_SET_NO":999,"REV_AT_EPOCH":23955,"BSTAR":8.0243018e-5,"MEAN_MOTION_DOT":1.61e-6,"MEAN_MOTION_DDOT":0},{"OBJECT_NAME":"NOAA 9","OBJECT_ID":"1984-123A","EPOCH":"2026-03-28T13:53:38.793408","MEAN_MOTION":14.17045051,"ECCENTRICITY":0.00141005,"INCLINATION":99.1074,"RA_OF_ASC_NODE":112.321,"ARG_OF_PERICENTER":214.9333,"MEAN_ANOMALY":256.6295,"EPHEMERIS_TYPE":0,"CLASSIFICATION_TYPE":"U","NORAD_CAT_ID":15427,"ELEMENT_SET_NO":999,"REV_AT_EPOCH":13200,"BSTAR":7.5191324e-5,"MEAN_MOTION_DOT":1.05e-6,"MEAN_MOTION_DDOT":0},{"OBJECT_NAME":"NOAA 10","OBJECT_ID":"1986-073A","EPOCH":"2026-03-28T14:18:43.267968","MEAN_MOTION":14.29151645,"ECCENTRICITY":0.00111544,"INCLINATION":98.7017,"RA_OF_ASC_NODE":80.9541,"ARG_OF_PERICENTER":228.5295,"MEAN_ANOMALY":241.3898,"EPHEMERIS_TYPE":0,"CLASSIFICATION_TYPE":"U","NORAD_CAT_ID":16969,"ELEMENT_SET_NO":999,"REV_AT_EPOCH":5790,"BSTAR":7.5846694e-5,"MEAN_MOTION_DOT":1.48e-6,"MEAN_MOTION_DDOT":0},{"OBJECT_NAME":"NOAA 12","OBJECT_ID":"1991-032A","EPOCH":"2026-03-28T13:09:47.196288","MEAN_MOTION":14.26723468,"ECCENTRICITY":0.0012479,"INCLINATION":98.6172,"RA_OF_ASC_NODE":77.2587,"ARG_OF_PERICENTER":263.7445,"MEAN_ANOMALY":96.2314,"EPHEMERIS_TYPE":0,"CLASSIFICATION_TYPE":"U","NORAD_CAT_ID":21263,"ELEMENT_SET_NO":999,"REV_AT_EPOCH":81346,"BSTAR":7.2634025e-5,"MEAN_MOTION_DOT":1.32e-6,"MEAN_MOTION_DDOT":0},{"OBJECT_NAME":"NOAA 13","OBJECT_ID":"1993-050A","EPOCH":"2026-03-28T13:08:42.222624","MEAN_MOTION":14.13642392,"ECCENTRICITY":0.00096237,"INCLINATION":98.6962,"RA_OF_ASC_NODE":34.7718,"ARG_OF_PERICENTER":6.7436,"MEAN_ANOMALY":353.3865,"EPHEMERIS_TYPE":0,"CLASSIFICATION_TYPE":"U","NORAD_CAT_ID":22739,"ELEMENT_SET_NO":999,"REV_AT_EPOCH":68198,"BSTAR":8.0556813e-5,"MEAN_MOTION_DOT":1.09e-6,"MEAN_MOTION_DDOT":0},{"OBJECT_NAME":"NOAA 14","OBJECT_ID":"1994-089A","EPOCH":"2026-03-28T13:35:46.276512","MEAN_MOTION":14.14659498,"ECCENTRICITY":0.00087326,"INCLINATION":98.5053,"RA_OF_ASC_NODE":60.8888,"ARG_OF_PERICENTER":321.3168,"MEAN_ANOMALY":38.738,"EPHEMERIS_TYPE":0,"CLASSIFICATION_TYPE":"U","NORAD_CAT_ID":23455,"ELEMENT_SET_NO":999,"REV_AT_EPOCH":61180,"BSTAR":6.1474695e-5,"MEAN_MOTION_DOT":7.7e-7,"MEAN_MOTION_DDOT":0},{"OBJECT_NAME":"NOAA 15","OBJECT_ID":"1998-030A","EPOCH":"2026-03-28T13:24:27.983808","MEAN_MOTION":14.27119982,"ECCENTRICITY":0.00095085,"INCLINATION":98.514,"RA_OF_ASC_NODE":110.3457,"ARG_OF_PERICENTER":218.4915,"MEAN_ANOMALY":141.5589,"EPHEMERIS_TYPE":0,"CLASSIFICATION_TYPE":"U","NORAD_CAT_ID":25338,"ELEMENT_SET_NO":999,"REV_AT_EPOCH":44979,"BSTAR":8.4707319e-5,"MEAN_MOTION_DOT":1.64e-6,"MEAN_MOTION_DDOT":0},{"OBJECT_NAME":"NOAA 16","OBJECT_ID":"2000-055A","EPOCH":"2026-03-28T13:31:22.028160","MEAN_MOTION":14.13903345,"ECCENTRICITY":0.00106578,"INCLINATION":98.4686,"RA_OF_ASC_NODE":106.0816,"ARG_OF_PERICENTER":166.6875,"MEAN_ANOMALY":193.4582,"EPHEMERIS_TYPE":0,"CLASSIFICATION_TYPE":"U","NORAD_CAT_ID":26536,"ELEMENT_SET_NO":999,"REV_AT_EPOCH":61233,"BSTAR":8.1994377e-5,"MEAN_MOTION_DOT":1.15e-6,"MEAN_MOTION_DDOT":0}]
