{"fetched_at":"2026-03-29T08:39:39Z","count":15728,"tles":[{"name":"NOAA 15","line1":"1 25338U 98030A   26087.55865722  .00000164  00000+0  84707-4 0  9994","line2":"2 25338  98.5140 110.3457 0009508 218.4915 141.5589 14.27119982449793","category":"Weather"},{"name":"NOAA 2 (ITOS-D)","line1":"1 06235U 72082A   26087.58732071 -.00000023  00000+0  14700-3 0  9991","line2":"2 06235 102.0148 105.2586 0003780 327.9426 144.9494 12.53212418444851","category":"Weather"},{"name":"TIROS N","line1":"1 11060U 78096A   26087.56331967  .00000174  00000+0  10247-3 0  9999","line2":"2 11060  98.4610 112.2443 0011547 114.2396 245.9989 14.19346621667315","category":"Other"},{"name":"NOAA 14","line1":"1 23455U 94089A   26087.56650783  .00000077  00000+0  61475-4 0  9992","line2":"2 23455  98.5053  60.8888 0008732 321.3168  38.7380 14.14659498611809","category":"Weather"},{"name":"NOAA 13","line1":"1 22739U 93050A   26087.54771091  .00000109  00000+0  80557-4 0  9995","line2":"2 22739  98.6962  34.7718 0009623   6.7436 353.3865 14.13642392681981","category":"Weather"},{"name":"NOAA 7","line1":"1 12553U 81059A   26087.15121643  .00000058  00000+0  49786-4 0  9995","line2":"2 12553  98.8024 155.0426 0012228 136.6481 223.5658 14.17777120313269","category":"Weather"},{"name":"NOAA 16","line1":"1 26536U 00055A   26087.56344940  .00000115  00000+0  81994-4 0  9991","line2":"2 26536  98.4686 106.0816 0010657 166.6875 193.4582 14.13903345612335","category":"Weather"},{"name":"NOAA 9","line1":"1 15427U 84123A   26087.57892122  .00000105  00000+0  75191-4 0  9998","line2":"2 15427  99.1074 112.3210 0014100 214.9333 256.6295 14.17045051132001","category":"Weather"},{"name":"NOAA 5","line1":"1 09057U 76077A   26087.60138479 -.00000019  00000+0  20436-3 0  9997","line2":"2 09057 102.2984  73.2098 0010025 126.0013 343.8179 12.37829043244508","category":"Weather"},{"name":"NOAA 10","line1":"1 16969U 86073A   26087.59633412  .00000148  00000+0  75847-4 0  9998","line2":"2 16969  98.7017  80.9541 0011154 228.5295 241.3898 14.29151645 57901","category":"Weather"},{"name":"NOAA 3","line1":"1 06920U 73086A   26087.55629405 -.00000018  00000+0  21503-3 0  9993","line2":"2 06920 102.2896 100.7187 0006172 272.9249 201.9908 12.40392272371903","category":"Weather"},{"name":"NOAA 4","line1":"1 07529U 74089A   26087.56721157 -.00000023  00000+0  14831-3 0  9993","line2":"2 07529 102.0064  99.5011 0008911 353.0282 120.2736 12.53202056349424","category":"Weather"},{"name":"NOAA 12","line1":"1 21263U 91032A   26087.54846292  .00000132  00000+0  72634-4 0  9993","line2":"2 21263  98.6172  77.2587 0012479 263.7445  96.2314 14.26723468813469","category":"Weather"},{"name":"NOAA 8","line1":"1 13923U 83022A   26087.58922920  .00000161  00000+0  80243-4 0  9991","line2":"2 13923  98.7364 100.4492 0015629 131.6812 228.5710 14.29774045239554","category":"Weather"}]}